# From MPEC 2022-S20
C/1995 O1 (Hale-Bopp),e,89.6365,281.9509,130.4133,179.7345,0.0004090,0.99492515,0.0000,03/30.4313/1997,2000,g -2.0,4.0
# From NK 1615
P/1996 R2 (Lagerkvist),e,2.5990,40.0383,333.5092,3.771704,0.1345543,0.31409628,337.5635,12/31.0/2025,2000,g 11.5,4.0
# From MPC 73460
C/1997 BA6 (Spacewatch),e,72.6902,317.7784,286.0841,2937,0.0000062,0.99882065,0.0000,11/15.7843/1999,2000,g 10.0,2.0
# From MPC 75703
P/1998 VS24 (LINEAR),e,5.0301,159.0331,244.9328,4.519626,0.1025771,0.24344956,296.7969,12/31.0/2025,2000,g 13.0,2.0
# From MPC 73461
C/1999 F1 (Catalina),e,91.8618,19.9528,255.3240,20523,0.0000003,0.99971678,0.0000,01/31.1967/2002,2000,g  9.5,2.0
# From MPC186628
C/1999 J2 (Skiff),h,04/09.2776/2000,86.4037,50.2748,126.9702,1.000780,7.072014,2000,2.0,4.0
# From NK 731
P/1999 RO28 (LONEOS),e,7.5672,137.8397,231.3595,3.425197,0.1554804,0.67218130,9.5921,12/31.0/2025,2000,g 20.0,2.0
# From MPC 43758
C/1999 S2 (McNaught-Watson),h,11/07.1533/1997,65.6273,74.4448,223.4764,1.002332,6.503650,2000,2.0,4.0
# From MPC 75704
P/1999 XN120 (Catalina),e,5.0300,285.2382,161.4850,4.189809,0.1149245,0.21283218,1.1546,12/31.0/2025,2000,g 13.5,2.0
# From NK 744
P/2000 R2 (LINEAR),e,11.6793,160.2682,176.5821,3.468307,0.1525906,0.53054126,4.3799,12/31.0/2025,2000,g 18.0,4.0
# From MPC 43019
P/2001 H5 (NEAT),e,8.3727,328.6837,224.5805,6.093356,0.0655268,0.59963785,244.9666,12/31.0/2025,2000,g 12.0,4.0
# From MPC 46619
C/2001 M10 (NEAT),e,27.9946,293.9615,5.6098,26.72266,0.0071348,0.79927620,64.0490,12/31.0/2025,2000,g  8.0,4.0
# From MPEC 2015-N31
C/2002 A1 (LINEAR),e,14.0797,81.0452,18.7178,16.04063,0.0153416,0.70977258,134.9554,12/31.0/2025,2000,g 12.5,2.0
# From MPC 89006
C/2002 A2 (LINEAR),e,14.0338,81.0120,19.1130,15.89565,0.0155520,0.70744419,136.6965,12/31.0/2025,2000,g 11.0,2.0
# From MPC 45962
C/2002 B1 (LINEAR),e,51.0291,58.2671,76.0832,9.874532,0.0317636,0.77050873,275.4952,12/31.0/2025,2000,g 11.5,4.0
# From MPC188408
C/2002 CE10 (LINEAR),e,145.3749,147.5606,126.2389,9.765759,0.0322957,0.78943140,265.5126,12/31.0/2025,2000,g 13.0,2.0
# From MPEC 2023-UR6
P/2002 EJ57 (LINEAR),e,4.9909,330.2200,167.2967,6.454543,0.0601043,0.59416063,165.2607,12/31.0/2025,2000,g 12.5,4.0
# From MPEC 2015-N31
C/2002 L9 (NEAT),h,04/02.8301/2004,68.2220,110.4979,231.5847,1.000498,7.073382,2000,8.5,2.0
# From MPC 75007
C/2002 VQ94 (LINEAR),e,70.6225,35.0555,99.8134,187.4617,0.0003840,0.96398726,2.7883,12/31.0/2025,2000,g  9.5,2.0
# From MPC186628
C/2003 A2 (Gleason),e,8.0711,154.4607,346.5435,7841,0.0000014,0.99855089,0.0000,11/08.3015/2003,2000,g  3.5,4.0
# From MPC 51182
C/2003 E1 (NEAT),e,33.4707,137.1171,103.9278,13.77324,0.0192819,0.76202128,154.5758,12/31.0/2025,2000,g 12.5,2.0
# From MPC 50354
P/2003 F2 (NEAT),e,11.5845,358.9603,193.0955,6.553617,0.0587466,0.53637057,131.7299,12/31.0/2025,2000,g 16.5,2.0
# From unp
P/2003 L1 (Scotti),e,9.0430,225.8391,355.0332,6.693967,0.0569087,0.25184012,113.7646,12/31.0/2025,2000,g  9.5,4.0
# From MPC105235
P/2003 T12 (SOHO),e,11.0207,174.5701,219.8041,2.584247,0.2372483,0.77005017,129.3782,12/31.0/2025,2000,g 17.0,4.0
# From MPC 57131
C/2004 B1 (LINEAR),h,02/07.9302/2006,113.9123,273.3360,328.1255,1.000961,1.602303,2000,10.5,2.0
# From MPC 51368
C/2004 C1 (Larsen),e,28.8625,151.9549,315.9683,11.62433,0.0248686,0.62580256,359.9917,03/19.0/2003,2000,g 13.5,2.0
# From MPEC 2022-YN2
P/2004 FY140 (LINEAR),e,2.1629,327.2625,254.3186,4.968483,0.0889956,0.19289103,322.7522,12/31.0/2025,2000,g 12.5,2.0
# From MPC 53304
P/2004 R3 (LINEAR-NEAT),e,12.8051,305.1236,37.0494,4.744518,0.0953709,0.25487767,149.5684,12/31.0/2025,2000,g 14.5,4.0
# From MPC 53465
C/2004 T3 (Siding Spring),e,71.7729,50.3503,259.8493,46892,0.0000001,0.99981005,0.0000,04/04.5536/2003,2000,g  2.5,4.0
# From MPC 75705
P/2004 V5 (LINEAR-Hill),e,19.3305,47.7358,87.1517,8.053922,0.0431214,0.44951207,334.8794,12/31.0/2025,2000,g  8.0,4.0
# From unp
P/2004 V5-A (LINEAR-Hill),e,19.3339,47.7628,87.1166,8.054759,0.0431147,0.44959640,334.8938,12/31.0/2025,2000,g  8.0,4.0
# From MPC 75705
P/2004 V5-B (LINEAR-Hill),e,19.3307,47.7363,87.1562,8.054129,0.0431197,0.44952650,334.8383,12/31.0/2025,2000,g  8.0,4.0
# From MPC 54164
P/2005 E1 (Tubbiolo),e,4.2606,335.4855,193.9649,7.073448,0.0523911,0.37756087,43.1984,12/31.0/2025,2000,g 10.0,4.0
# From MPC 74246
P/2005 L1 (McNaught),e,9.9919,124.1029,165.9949,3.849842,0.1304787,0.27951222,181.6616,12/31.0/2025,2000,g  9.5,4.0
# From MPC 87062
C/2005 L3 (McNaught),e,139.3142,288.7781,46.9671,4057,0.0000038,0.99862571,0.0000,01/14.4727/2008,2000,g  4.0,4.0
# From MPC 75706
P/2005 S2 (Skiff),e,3.1394,161.3266,230.0729,7.981378,0.0437106,0.19821616,310.9071,12/31.0/2025,2000,g  7.5,4.0
# From MPC 73461
P/2005 T3 (Read),e,6.2335,27.6189,7.1726,7.567920,0.0473412,0.17370195,348.9676,12/31.0/2025,2000,g  9.0,4.0
# From MPC 75707
P/2006 HR30 (Siding Spring),e,31.9657,309.7462,117.5281,7.793914,0.0452971,0.84353527,314.0930,12/31.0/2025,2000,g 11.0,4.0
# From MPEC 2022-L66
C/2006 S3 (LONEOS),h,04/16.6259/2012,166.0456,38.5392,140.1445,1.000695,5.118295,2000,2.0,4.0
# From MPC 84315
C/2007 D1 (LINEAR),e,41.5180,170.9884,339.8095,1300,0.0000210,0.99327850,0.0000,06/16.0089/2007,2000,g  3.5,4.0
# From MPEC 2024-GJ3
P/2007 K2 (Gibbs),e,7.5876,188.3125,347.0415,7.400135,0.0489604,0.68696835,340.8516,12/31.0/2025,2000,g 14.0,4.0
# From MPC 73462
P/2007 S1 (Zhao),e,5.9625,141.3212,245.2852,3.819219,0.1320512,0.33767448,156.0747,12/31.0/2025,2000,g 13.0,4.0
# From MPEC 2024-GJ3
C/2007 S2 (Lemmon),e,16.9208,296.1345,210.1490,12.49220,0.0223226,0.55741637,141.1378,12/31.0/2025,2000,g  6.5,4.0
# From MPEC 2024-GJ3
C/2008 E1 (Catalina),e,34.8637,188.8805,270.4199,10.76359,0.0279105,0.55294293,176.8632,12/31.0/2025,2000,g  7.0,4.0
# From MPC 95207
C/2008 S3 (Boattini),h,06/09.0255/2011,162.7434,55.0214,40.1972,1.001825,8.056698,2000,4.0,4.0
# From MPC 75710
P/2008 Y3 (McNaught),e,38.7802,262.8281,238.1886,8.034020,0.0432817,0.44860552,268.9103,12/31.0/2025,2000,g  8.5,4.0
# From MPC 75710
P/2009 B1 (Boattini),e,22.2597,297.1089,129.0255,6.721802,0.0565556,0.63580665,349.7353,12/31.0/2025,2000,g 13.0,4.0
# From MPC 95208
C/2009 F4 (McNaught),e,79.1998,53.5030,260.5034,25428,0.0000002,0.99978460,0.0000,12/25.6326/2011,2000,g  3.0,4.0
# From MPC103843
C/2009 P1 (Garradd),e,106.2296,325.8566,90.4516,10711,0.0000009,0.99985636,0.0000,12/24.4327/2011,2000,g  4.0,4.0
# From MPC 68902
P/2009 Q5 (McNaught),e,40.9481,160.1840,209.2010,7.427178,0.0486932,0.60910884,289.4664,12/31.0/2025,2000,g 10.0,4.0
# From MPC105235
P/2009 WX51 (Catalina),e,9.5982,31.5216,118.2949,3.082810,0.1820891,0.73974773,340.8709,12/31.0/2025,2000,g 19.0,2.0
# From MPC 74247
P/2009 Y2 (Kowalski),e,29.9725,262.0780,172.2744,6.534572,0.0590036,0.63729910,340.1862,12/31.0/2025,2000,g 13.0,4.0
# From MPC 75008
P/2010 C1 (Scotti),e,9.1158,141.5836,2.8775,7.133300,0.0517331,0.26444266,308.5357,12/31.0/2025,2000,g  9.5,4.0
# From MPC 75008
P/2010 D2 (WISE),e,57.1395,319.8796,120.0567,6.713332,0.0566627,0.45155490,328.5107,12/31.0/2025,2000,g 16.0,4.0
# From MPC 72851
P/2010 H2 (Vales),e,14.2782,64.1895,128.0731,3.835257,0.1312237,0.19796901,38.8692,12/31.0/2025,2000,g  6.0,4.0
# From MPC 70361
P/2010 H3 (SOHO),e,23.1405,77.1687,26.0877,3.034613,0.1864443,0.98558087,0.0000,05/25.2478/2026,2000,g 20.0,2.0
# From MPEC 2024-GJ3
P/2010 H4 (Scotti),e,2.3177,44.7487,179.0788,6.620027,0.0578648,0.26740660,330.6912,12/31.0/2025,2000,g 10.5,4.0
# From MPC 74637
P/2010 H5 (Scotti),e,14.0523,24.3931,175.3829,7.168226,0.0513555,0.15642072,296.2714,12/31.0/2025,2000,g 13.0,2.0
# From MPC 84315
P/2010 JC81 (WISE),e,38.7410,30.8339,12.5225,8.103103,0.0427294,0.77786920,228.7199,12/31.0/2025,2000,g  9.0,4.0
# From MPC 83518
C/2010 L3 (Catalina),e,102.6463,38.3227,121.7550,38478,0.0000001,0.99974353,0.0000,11/12.5118/2010,2000,g  4.5,4.0
# From MPC115879
C/2010 S1 (LINEAR),h,05/20.3582/2013,125.4398,93.6713,118.7226,1.000702,5.909313,2000,3.5,4.0
# From MPC 74248
P/2010 T2 (PANSTARRS),e,7.8528,57.7035,349.8656,5.569416,0.0749876,0.32449310,50.9385,12/31.0/2025,2000,g 11.5,4.0
# From MPEC 2023-J95
C/2010 U3 (Boattini),h,02/28.8001/2019,55.5298,42.9945,88.1089,1.000186,8.440806,2000,1.0,4.0
# From MPC 79021
P/2010 UH55 (Spacewatch),e,8.0378,232.7968,225.3729,6.645465,0.0575329,0.56467137,309.1170,12/31.0/2025,2000,g 11.0,4.0
# From MPC 84021
P/2011 C2 (Gibbs),e,10.8981,11.9671,160.3165,7.406224,0.0489000,0.27168210,251.2015,12/31.0/2025,2000,g  9.0,4.0
# From MPC 89309
C/2011 F1 (LINEAR),e,56.3822,85.1970,192.6049,3815,0.0000042,0.99951839,0.0000,01/01.8102/2013,2000,g  5.0,4.0
# From MPC 79866
P/2011 FR143 (Lemmon),e,15.9611,190.8425,349.6083,6.886314,0.0545411,0.45294791,298.5060,12/31.0/2025,2000,g 14.0,2.0
# From MPC106343
C/2011 J2 (LINEAR),h,12/20.3881/2013,122.7905,164.0503,85.4768,1.000293,3.459915,2000,5.5,3.6
# From MPC 82317
P/2011 JB15 (Spacewatch-Boattini),e,19.1271,153.5837,110.6147,7.382312,0.0491378,0.31516947,251.9000,12/31.0/2025,2000,g  9.0,4.0
# From MPEC 2023-J95
C/2011 KP36 (Spacewatch),e,18.9566,173.4024,180.9714,39.38914,0.0039869,0.87495559,13.9826,12/31.0/2025,2000,g  4.5,4.0
# From MPC 87913
P/2011 N1 (ASH),e,35.7830,77.6251,330.5195,6.231485,0.0633602,0.54533088,313.7397,12/31.0/2025,2000,g 11.5,4.0
# From MPEC 2022-ED3
P/2011 P1 (McNaught),e,5.6503,4.2442,349.1380,7.463832,0.0483350,0.32604102,272.1796,12/31.0/2025,2000,g  9.0,4.0
# From MPC107047
C/2011 P2 (PANSTARRS),e,8.9824,203.9261,76.2156,9.765861,0.0322952,0.36526721,181.4704,12/31.0/2025,2000,g  8.5,4.0
# From MPEC 2022-HC2
P/2011 S1 (Gibbs),e,2.6876,218.8978,193.0323,8.600424,0.0390773,0.20049284,162.0475,12/31.0/2025,2000,g  8.0,4.0
# From MPEC 2023-UR6
P/2011 V1 (Boattini),e,7.3823,46.4909,269.5915,3.858191,0.1300554,0.54838111,345.2355,12/31.0/2025,2000,g 15.5,4.0
# From MPC 82718
P/2011 W1 (PANSTARRS),e,3.7158,161.7929,283.1016,4.675633,0.0974863,0.28830552,138.4676,12/31.0/2025,2000,g 11.5,4.0
# From MPC 79342
